2017-008BB              
1 41997U 17008BB  17073.82020173  .00002187  00000-0  99027-4 0  9996
2 41997  97.5080 135.4072 0009293 170.4546 189.6866 15.21935029  3490
